ONEWEB-0136             
1 47282U 20100AA  25156.50371557  .00000356  00000+0  95318-3 0  9990
2 47282  87.8890  65.5663 0002223  89.9269 270.2114 13.12444292215252
ONEWEB-0137             
1 47283U 20100AB  25156.46152740 -.00000368  00000+0 -10575-2 0  9993
2 47283  87.8887  65.5829 0002085  74.8454 285.2905 13.12441658215154
ONEWEB-0138             
1 47284U 20100AC  25156.44045516  .00000258  00000+0  68310-3 0  9991
2 47284  87.8885  65.5989 0002039  81.3844 278.7516 13.12443868215234
ONEWEB-0139             
1 47285U 20100AD  25156.47952666 -.00000195  00000+0 -57689-3 0  9997
2 47285  87.8893  65.5812 0001934  78.5383 281.5963 13.12444922215317
ONEWEB-0140             
1 47286U 20100AE  25156.43396770  .00000402  00000+0  10830-2 0  9997
2 47286  87.8886  65.5770 0001981  82.0005 278.1348 13.12441900215273
ONEWEB-0141             
1 47287U 20100AF  25156.47923231 -.00000235  00000+0 -69000-3 0  9990
2 47287  87.8888  65.5850 0002170  70.8148 289.3215 13.12441895215268
ONEWEB-0142             
1 47288U 20100AG  25156.46816634 -.00000397  00000+0 -11392-2 0  9997
2 47288  87.8906  65.5870 0002237  77.5150 282.6228 13.12443237215254
ONEWEB-0143             
1 47289U 20100AH  25156.47774507 -.00000411  00000+0 -11774-2 0  9992
2 47289  87.8890  65.5904 0001938  78.7786 281.3561 13.12444636215238
